{
  "type": "FeatureCollection",
  "features": [
    {
      "type": "Feature",
      "properties": {
        "norad_id": 66916,
        "name": "HULIANWANG DIGUI 14B",
        "group": "last-30-days",
        "lat": 2.954771637724598,
        "lon": 143.43472168945928,
        "alt_km": 874.3515447106756,
        "timestamp": "2025-12-06T22:38:41.510239+00:00",
        "meta_object_name": "HULIANWANG DIGUI 14B",
        "meta_object_id": "2025-285B",
        "meta_epoch": "2025-12-06T12:23:28.538592",
        "meta_mean_motion": 14.0595389,
        "meta_eccentricity": 0.0008093,
        "meta_inclination": 50.0119,
        "meta_ra_of_asc_node": 142.6984,
        "meta_arg_of_pericenter": 262.9615,
        "meta_mean_anomaly": 97.037,
        "meta_ephemeris_type": 0,
        "meta_classification_type": "U",
        "meta_norad_cat_id": 66916,
        "meta_element_set_no": 999,
        "meta_rev_at_epoch": 3,
        "meta_bstar": 1.7671e-05,
        "meta_mean_motion_dot": -1.23e-06,
        "meta_mean_motion_ddot": 0,
        "tle_line1": "1 66916U 25285B   25340.51630253 -.00000123  00000+0  17671-4 0  9991",
        "tle_line2": "2 66916  50.0119 142.6984 0008093 262.9615  97.0370 14.05953890    34"
      },
      "geometry": {
        "type": "Point",
        "coordinates": [
          143.43472168945928,
          2.954771637724598
        ]
      }
    },
    {
      "type": "Feature",
      "properties": {
        "norad_id": 66917,
        "name": "HULIANWANG DIGUI 14C",
        "group": "last-30-days",
        "lat": 3.1699454360913215,
        "lon": 143.60058836533898,
        "alt_km": 873.8009121881514,
        "timestamp": "2025-12-06T22:38:41.510249+00:00",
        "meta_object_name": "HULIANWANG DIGUI 14C",
        "meta_object_id": "2025-285C",
        "meta_epoch": "2025-12-06T15:48:08.415072",
        "meta_mean_motion": 14.06085009,
        "meta_eccentricity": 0.0007579,
        "meta_inclination": 50.0003,
        "meta_ra_of_asc_node": 142.1014,
        "meta_arg_of_pericenter": 263.8589,
        "meta_mean_anomaly": 96.1453,
        "meta_ephemeris_type": 0,
        "meta_classification_type": "U",
        "meta_norad_cat_id": 66917,
        "meta_element_set_no": 999,
        "meta_rev_at_epoch": 5,
        "meta_bstar": -0.0014404,
        "meta_mean_motion_dot": -2.531e-05,
        "meta_mean_motion_ddot": 0,
        "tle_line1": "1 66917U 25285C   25340.65843073 -.00002531  00000+0 -14404-2 0  9998",
        "tle_line2": "2 66917  50.0003 142.1014 0007579 263.8589  96.1453 14.06085009    57"
      },
      "geometry": {
        "type": "Point",
        "coordinates": [
          143.60058836533898,
          3.1699454360913215
        ]
      }
    },
    {
      "type": "Feature",
      "properties": {
        "norad_id": 66918,
        "name": "HULIANWANG DIGUI 14D",
        "group": "last-30-days",
        "lat": 3.3110119260528803,
        "lon": 143.72032284591452,
        "alt_km": 873.602029464053,
        "timestamp": "2025-12-06T22:38:41.510259+00:00",
        "meta_object_name": "HULIANWANG DIGUI 14D",
        "meta_object_id": "2025-285D",
        "meta_epoch": "2025-12-06T15:48:07.003296",
        "meta_mean_motion": 14.06184066,
        "meta_eccentricity": 0.0006457,
        "meta_inclination": 50.0025,
        "meta_ra_of_asc_node": 142.1026,
        "meta_arg_of_pericenter": 260.3937,
        "meta_mean_anomaly": 99.6239,
        "meta_ephemeris_type": 0,
        "meta_classification_type": "U",
        "meta_norad_cat_id": 66918,
        "meta_element_set_no": 999,
        "meta_rev_at_epoch": 5,
        "meta_bstar": -0.0014374,
        "meta_mean_motion_dot": -2.53e-05,
        "meta_mean_motion_ddot": 0,
        "tle_line1": "1 66918U 25285D   25340.65841439 -.00002530  00000+0 -14374-2 0  9998",
        "tle_line2": "2 66918  50.0025 142.1026 0006457 260.3937  99.6239 14.06184066    51"
      },
      "geometry": {
        "type": "Point",
        "coordinates": [
          143.72032284591452,
          3.3110119260528803
        ]
      }
    },
    {
      "type": "Feature",
      "properties": {
        "norad_id": 66919,
        "name": "HULIANWANG DIGUI 14E",
        "group": "last-30-days",
        "lat": 3.404456049978632,
        "lon": 143.80110756216993,
        "alt_km": 872.6309573648932,
        "timestamp": "2025-12-06T22:38:41.510270+00:00",
        "meta_object_name": "HULIANWANG DIGUI 14E",
        "meta_object_id": "2025-285E",
        "meta_epoch": "2025-12-06T15:48:05.582880",
        "meta_mean_motion": 14.06221053,
        "meta_eccentricity": 0.0007995,
        "meta_inclination": 50.005,
        "meta_ra_of_asc_node": 142.1049,
        "meta_arg_of_pericenter": 271.3184,
        "meta_mean_anomaly": 88.6806,
        "meta_ephemeris_type": 0,
        "meta_classification_type": "U",
        "meta_norad_cat_id": 66919,
        "meta_element_set_no": 999,
        "meta_rev_at_epoch": 5,
        "meta_bstar": -0.0014339,
        "meta_mean_motion_dot": -2.526e-05,
        "meta_mean_motion_ddot": 0,
        "tle_line1": "1 66919U 25285E   25340.65839795 -.00002526  00000+0 -14339-2 0  9997",
        "tle_line2": "2 66919  50.0050 142.1049 0007995 271.3184  88.6806 14.06221053    55"
      },
      "geometry": {
        "type": "Point",
        "coordinates": [
          143.80110756216993,
          3.404456049978632
        ]
      }
    },
    {
      "type": "Feature",
      "properties": {
        "norad_id": 66920,
        "name": "HULIANWANG DIGUI 14F",
        "group": "last-30-days",
        "lat": 3.587929756954729,
        "lon": 143.95719578447049,
        "alt_km": 872.3814545802525,
        "timestamp": "2025-12-06T22:38:41.510282+00:00",
        "meta_object_name": "HULIANWANG DIGUI 14F",
        "meta_object_id": "2025-285F",
        "meta_epoch": "2025-12-06T15:48:03.817728",
        "meta_mean_motion": 14.06353961,
        "meta_eccentricity": 0.0005937,
        "meta_inclination": 50.0083,
        "meta_ra_of_asc_node": 142.1068,
        "meta_arg_of_pericenter": 267.7054,
        "meta_mean_anomaly": 92.3172,
        "meta_ephemeris_type": 0,
        "meta_classification_type": "U",
        "meta_norad_cat_id": 66920,
        "meta_element_set_no": 999,
        "meta_rev_at_epoch": 5,
        "meta_bstar": -0.0014304,
        "meta_mean_motion_dot": -2.526e-05,
        "meta_mean_motion_ddot": 0,
        "tle_line1": "1 66920U 25285F   25340.65837752 -.00002526  00000+0 -14304-2 0  9992",
        "tle_line2": "2 66920  50.0083 142.1068 0005937 267.7054  92.3172 14.06353961    55"
      },
      "geometry": {
        "type": "Point",
        "coordinates": [
          143.95719578447049,
          3.587929756954729
        ]
      }
    },
    {
      "type": "Feature",
      "properties": {
        "norad_id": 66921,
        "name": "HULIANWANG DIGUI 14G",
        "group": "last-30-days",
        "lat": 3.6484676706347523,
        "lon": 144.00955048872498,
        "alt_km": 871.7898335774689,
        "timestamp": "2025-12-06T22:38:41.510294+00:00",
        "meta_object_name": "HULIANWANG DIGUI 14G",
        "meta_object_id": "2025-285G",
        "meta_epoch": "2025-12-06T15:48:02.911392",
        "meta_mean_motion": 14.06378763,
        "meta_eccentricity": 0.0006951,
        "meta_inclination": 50.01,
        "meta_ra_of_asc_node": 142.1083,
        "meta_arg_of_pericenter": 274.3391,
        "meta_mean_anomaly": 85.672,
        "meta_ephemeris_type": 0,
        "meta_classification_type": "U",
        "meta_norad_cat_id": 66921,
        "meta_element_set_no": 999,
        "meta_rev_at_epoch": 5,
        "meta_bstar": -0.0014282,
        "meta_mean_motion_dot": -2.523e-05,
        "meta_mean_motion_ddot": 0,
        "tle_line1": "1 66921U 25285G   25340.65836703 -.00002523  00000+0 -14282-2 0  9990",
        "tle_line2": "2 66921  50.0100 142.1083 0006951 274.3391  85.6720 14.06378763    59"
      },
      "geometry": {
        "type": "Point",
        "coordinates": [
          144.00955048872498,
          3.6484676706347523
        ]
      }
    },
    {
      "type": "Feature",
      "properties": {
        "norad_id": 66922,
        "name": "HULIANWANG DIGUI 14H",
        "group": "last-30-days",
        "lat": 3.8077710713427355,
        "lon": 144.14167855500267,
        "alt_km": 870.872234374343,
        "timestamp": "2025-12-06T22:38:41.510307+00:00",
        "meta_object_name": "HULIANWANG DIGUI 14H",
        "meta_object_id": "2025-285H",
        "meta_epoch": "2025-12-06T15:48:01.033920",
        "meta_mean_motion": 14.06472871,
        "meta_eccentricity": 0.0006886,
        "meta_inclination": 50.0075,
        "meta_ra_of_asc_node": 142.106,
        "meta_arg_of_pericenter": 281.0831,
        "meta_mean_anomaly": 78.93,
        "meta_ephemeris_type": 0,
        "meta_classification_type": "U",
        "meta_norad_cat_id": 66922,
        "meta_element_set_no": 999,
        "meta_rev_at_epoch": 5,
        "meta_bstar": 8.179e-06,
        "meta_mean_motion_dot": -1.39e-06,
        "meta_mean_motion_ddot": 0,
        "tle_line1": "1 66922U 25285H   25340.65834530 -.00000139  00000+0  81790-5 0  9998",
        "tle_line2": "2 66922  50.0075 142.1060 0006886 281.0831  78.9300 14.06472871    51"
      },
      "geometry": {
        "type": "Point",
        "coordinates": [
          144.14167855500267,
          3.8077710713427355
        ]
      }
    }
  ]
}